[{"OBJECT_NAME":"STARLINK-30178","OBJECT_ID":"2023-105T","EPOCH":"2026-03-09T22:00:01.999584","MEAN_MOTION":15.22405085,"ECCENTRICITY":8.111e-5,"INCLINATION":42.9995,"RA_OF_ASC_NODE":258.5418,"ARG_OF_PERICENTER":319.8962,"MEAN_ANOMALY":154.376,"EPHEMERIS_TYPE":0,"CLASSIFICATION_TYPE":"U","NORAD_CAT_ID":57447,"ELEMENT_SET_NO":999,"REV_AT_EPOCH":578,"BSTAR":0.0055738617,"MEAN_MOTION_DOT":0.00133479,"MEAN_MOTION_DDOT":0},{"OBJECT_NAME":"YAOGAN-43 02F","OBJECT_ID":"2024-156F","EPOCH":"2026-03-09T13:00:32.217984","MEAN_MOTION":15.22951134,"ECCENTRICITY":0.00011647,"INCLINATION":34.9922,"RA_OF_ASC_NODE":104.6026,"ARG_OF_PERICENTER":214.3893,"MEAN_ANOMALY":145.6747,"EPHEMERIS_TYPE":0,"CLASSIFICATION_TYPE":"U","NORAD_CAT_ID":60950,"ELEMENT_SET_NO":999,"REV_AT_EPOCH":8424,"BSTAR":0.00046453388,"MEAN_MOTION_DOT":0.00011154,"MEAN_MOTION_DDOT":0}]
